CCSDS_OMM_VERS = 2.0
CREATION_DATE  = 
ORIGINATOR     = 

OBJECT_NAME    = KUIPER-00130
OBJECT_ID      = 2025-228N
CENTER_NAME    = EARTH
REF_FRAME      = TEME
TIME_SYSTEM    = UTC
MEAN_ELEMENT_THEORY = SGP/SGP4

EPOCH          = 2025-11-13T14:57:26.629632
MEAN_MOTION    = 15.34964795
ECCENTRICITY   = .00052249
INCLINATION    = 51.8788
RA_OF_ASC_NODE = 160.8987
ARG_OF_PERICENTER = 259.4350
MEAN_ANOMALY   = 100.6047

EPHEMERIS_TYPE = 0
CLASSIFICATION_TYPE = U
NORAD_CAT_ID   = 65959
ELEMENT_SET_NO = 999
REV_AT_EPOCH   = 594
BSTAR          = .18998904E-2
MEAN_MOTION_DOT = .65632E-3
MEAN_MOTION_DDOT = 0

CCSDS_OMM_VERS = 2.0
CREATION_DATE  = 
ORIGINATOR     = 

OBJECT_NAME    = KUIPER-00134
OBJECT_ID      = 2025-228P
CENTER_NAME    = EARTH
REF_FRAME      = TEME
TIME_SYSTEM    = UTC
MEAN_ELEMENT_THEORY = SGP/SGP4

EPOCH          = 2025-11-13T15:00:00.350784
MEAN_MOTION    = 15.34923110
ECCENTRICITY   = .0005391
INCLINATION    = 51.8803
RA_OF_ASC_NODE = 160.9082
ARG_OF_PERICENTER = 258.3562
MEAN_ANOMALY   = 101.6818

EPHEMERIS_TYPE = 0
CLASSIFICATION_TYPE = U
NORAD_CAT_ID   = 65960
ELEMENT_SET_NO = 999
REV_AT_EPOCH   = 594
BSTAR          = .23418395E-2
MEAN_MOTION_DOT = .81048E-3
MEAN_MOTION_DDOT = 0

CCSDS_OMM_VERS = 2.0
CREATION_DATE  = 
ORIGINATOR     = 

OBJECT_NAME    = KUIPER-00135
OBJECT_ID      = 2025-228Q
CENTER_NAME    = EARTH
REF_FRAME      = TEME
TIME_SYSTEM    = UTC
MEAN_ELEMENT_THEORY = SGP/SGP4

EPOCH          = 2025-11-13T13:25:42.235968
MEAN_MOTION    = 15.34968000
ECCENTRICITY   = .00042792
INCLINATION    = 51.8776
RA_OF_ASC_NODE = 161.2309
ARG_OF_PERICENTER = 248.2446
MEAN_ANOMALY   = 111.8085

EPHEMERIS_TYPE = 0
CLASSIFICATION_TYPE = U
NORAD_CAT_ID   = 65961
ELEMENT_SET_NO = 999
REV_AT_EPOCH   = 593
BSTAR          = .17933625E-2
MEAN_MOTION_DOT = .61898E-3
MEAN_MOTION_DDOT = 0

CCSDS_OMM_VERS = 2.0
CREATION_DATE  = 
ORIGINATOR     = 

OBJECT_NAME    = KUIPER-00136
OBJECT_ID      = 2025-228R
CENTER_NAME    = EARTH
REF_FRAME      = TEME
TIME_SYSTEM    = UTC
MEAN_ELEMENT_THEORY = SGP/SGP4

EPOCH          = 2025-11-13T13:14:41.677728
MEAN_MOTION    = 15.35249887
ECCENTRICITY   = .00038917
INCLINATION    = 51.8769
RA_OF_ASC_NODE = 161.1799
ARG_OF_PERICENTER = 238.0767
MEAN_ANOMALY   = 121.9841

EPHEMERIS_TYPE = 0
CLASSIFICATION_TYPE = U
NORAD_CAT_ID   = 65962
ELEMENT_SET_NO = 999
REV_AT_EPOCH   = 593
BSTAR          = .17431259E-2
MEAN_MOTION_DOT = .60687E-3
MEAN_MOTION_DDOT = 0

CCSDS_OMM_VERS = 2.0
CREATION_DATE  = 
ORIGINATOR     = 

OBJECT_NAME    = KUIPER-00137
OBJECT_ID      = 2025-228S
CENTER_NAME    = EARTH
REF_FRAME      = TEME
TIME_SYSTEM    = UTC
MEAN_ELEMENT_THEORY = SGP/SGP4

EPOCH          = 2025-11-13T13:24:56.630592
MEAN_MOTION    = 15.34818338
ECCENTRICITY   = .00044357
INCLINATION    = 51.8791
RA_OF_ASC_NODE = 161.2275
ARG_OF_PERICENTER = 257.3712
MEAN_ANOMALY   = 102.6778

EPHEMERIS_TYPE = 0
CLASSIFICATION_TYPE = U
NORAD_CAT_ID   = 65963
ELEMENT_SET_NO = 999
REV_AT_EPOCH   = 593
BSTAR          = .20932916E-2
MEAN_MOTION_DOT = .72068E-3
MEAN_MOTION_DDOT = 0

CCSDS_OMM_VERS = 2.0
CREATION_DATE  = 
ORIGINATOR     = 

OBJECT_NAME    = KUIPER-00138
OBJECT_ID      = 2025-228T
CENTER_NAME    = EARTH
REF_FRAME      = TEME
TIME_SYSTEM    = UTC
MEAN_ELEMENT_THEORY = SGP/SGP4

EPOCH          = 2025-11-13T07:15:13.898016
MEAN_MOTION    = 15.34666720
ECCENTRICITY   = .00045806
INCLINATION    = 51.8759
RA_OF_ASC_NODE = 162.4978
ARG_OF_PERICENTER = 268.1864
MEAN_ANOMALY   = 91.8597

EPHEMERIS_TYPE = 0
CLASSIFICATION_TYPE = U
NORAD_CAT_ID   = 65964
ELEMENT_SET_NO = 999
REV_AT_EPOCH   = 589
BSTAR          = .17577742E-2
MEAN_MOTION_DOT = .60068E-3
MEAN_MOTION_DDOT = 0

CCSDS_OMM_VERS = 2.0
CREATION_DATE  = 
ORIGINATOR     = 

OBJECT_NAME    = KUIPER-00140
OBJECT_ID      = 2025-228U
CENTER_NAME    = EARTH
REF_FRAME      = TEME
TIME_SYSTEM    = UTC
MEAN_ELEMENT_THEORY = SGP/SGP4

EPOCH          = 2025-11-13T13:32:02.680224
MEAN_MOTION    = 15.34469958
ECCENTRICITY   = .00047374
INCLINATION    = 51.8774
RA_OF_ASC_NODE = 161.2561
ARG_OF_PERICENTER = 266.1253
MEAN_ANOMALY   = 93.9191

EPHEMERIS_TYPE = 0
CLASSIFICATION_TYPE = U
NORAD_CAT_ID   = 65965
ELEMENT_SET_NO = 999
REV_AT_EPOCH   = 593
BSTAR          = .17400634E-2
MEAN_MOTION_DOT = .5908E-3
MEAN_MOTION_DDOT = 0

CCSDS_OMM_VERS = 2.0
CREATION_DATE  = 
ORIGINATOR     = 

OBJECT_NAME    = KUIPER-00141
OBJECT_ID      = 2025-228V
CENTER_NAME    = EARTH
REF_FRAME      = TEME
TIME_SYSTEM    = UTC
MEAN_ELEMENT_THEORY = SGP/SGP4

EPOCH          = 2025-11-13T14:52:42.434112
MEAN_MOTION    = 15.35157637
ECCENTRICITY   = .0005356
INCLINATION    = 51.8791
RA_OF_ASC_NODE = 160.8783
ARG_OF_PERICENTER = 250.8853
MEAN_ANOMALY   = 109.1553

EPHEMERIS_TYPE = 0
CLASSIFICATION_TYPE = U
NORAD_CAT_ID   = 65966
ELEMENT_SET_NO = 999
REV_AT_EPOCH   = 594
BSTAR          = .16765564E-2
MEAN_MOTION_DOT = .58174E-3
MEAN_MOTION_DDOT = 0

CCSDS_OMM_VERS = 2.0
CREATION_DATE  = 
ORIGINATOR     = 

OBJECT_NAME    = KUIPER-00146
OBJECT_ID      = 2025-228W
CENTER_NAME    = EARTH
REF_FRAME      = TEME
TIME_SYSTEM    = UTC
MEAN_ELEMENT_THEORY = SGP/SGP4

EPOCH          = 2025-11-13T13:20:51.368640
MEAN_MOTION    = 15.34830426
ECCENTRICITY   = .00051746
INCLINATION    = 51.8741
RA_OF_ASC_NODE = 161.2092
ARG_OF_PERICENTER = 252.5355
MEAN_ANOMALY   = 107.5065

EPHEMERIS_TYPE = 0
CLASSIFICATION_TYPE = U
NORAD_CAT_ID   = 65967
ELEMENT_SET_NO = 999
REV_AT_EPOCH   = 593
BSTAR          = .23048045E-2
MEAN_MOTION_DOT = .79506E-3
MEAN_MOTION_DDOT = 0

CCSDS_OMM_VERS = 2.0
CREATION_DATE  = 
ORIGINATOR     = 

OBJECT_NAME    = KUIPER-00149
OBJECT_ID      = 2025-228X
CENTER_NAME    = EARTH
REF_FRAME      = TEME
TIME_SYSTEM    = UTC
MEAN_ELEMENT_THEORY = SGP/SGP4

EPOCH          = 2025-11-13T14:48:31.118976
MEAN_MOTION    = 15.35259350
ECCENTRICITY   = .00051093
INCLINATION    = 51.8790
RA_OF_ASC_NODE = 160.8609
ARG_OF_PERICENTER = 243.2364
MEAN_ANOMALY   = 116.8100

EPHEMERIS_TYPE = 0
CLASSIFICATION_TYPE = U
NORAD_CAT_ID   = 65968
ELEMENT_SET_NO = 999
REV_AT_EPOCH   = 594
BSTAR          = .23329219E-2
MEAN_MOTION_DOT = .81614E-3
MEAN_MOTION_DDOT = 0

CCSDS_OMM_VERS = 2.0
CREATION_DATE  = 
ORIGINATOR     = 

OBJECT_NAME    = KUIPER-00154
OBJECT_ID      = 2025-228Y
CENTER_NAME    = EARTH
REF_FRAME      = TEME
TIME_SYSTEM    = UTC
MEAN_ELEMENT_THEORY = SGP/SGP4

EPOCH          = 2025-11-13T14:47:06.486720
MEAN_MOTION    = 15.34972866
ECCENTRICITY   = .0005539
INCLINATION    = 51.8782
RA_OF_ASC_NODE = 160.8554
ARG_OF_PERICENTER = 248.7551
MEAN_ANOMALY   = 111.2843

EPHEMERIS_TYPE = 0
CLASSIFICATION_TYPE = U
NORAD_CAT_ID   = 65969
ELEMENT_SET_NO = 999
REV_AT_EPOCH   = 594
BSTAR          = .16568717E-2
MEAN_MOTION_DOT = .57141E-3
MEAN_MOTION_DDOT = 0

CCSDS_OMM_VERS = 2.0
CREATION_DATE  = 
ORIGINATOR     = 

OBJECT_NAME    = KUIPER-00157
OBJECT_ID      = 2025-228Z
CENTER_NAME    = EARTH
REF_FRAME      = TEME
TIME_SYSTEM    = UTC
MEAN_ELEMENT_THEORY = SGP/SGP4

EPOCH          = 2025-11-13T13:26:27.449952
MEAN_MOTION    = 15.34735953
ECCENTRICITY   = .00057446
INCLINATION    = 51.8806
RA_OF_ASC_NODE = 161.2340
ARG_OF_PERICENTER = 268.9960
MEAN_ANOMALY   = 91.0368

EPHEMERIS_TYPE = 0
CLASSIFICATION_TYPE = U
NORAD_CAT_ID   = 65970
ELEMENT_SET_NO = 999
REV_AT_EPOCH   = 593
BSTAR          = .30065798E-2
MEAN_MOTION_DOT = .103861E-2
MEAN_MOTION_DDOT = 0

